CCSDS_OEM_VERS = 1.0
CREATION_DATE  = 2017-05-11T11:16:28
ORIGINATOR     = GMAT USER

META_START
OBJECT_NAME          = MOPSSat_alt_35785_km_RAAN_90_082
OBJECT_ID            = SatId
CENTER_NAME          = Earth
REF_FRAME            = EME2000
TIME_SYSTEM          = UTC
START_TIME           = 2017-01-01T00:00:00.000
USEABLE_START_TIME   = 2017-01-01T00:00:00.000
USEABLE_STOP_TIME    = 2017-01-02T00:00:00.000
STOP_TIME            = 2017-01-02T00:00:00.000
INTERPOLATION        = Lagrange
INTERPOLATION_DEGREE = 7 
META_STOP


                                                                                   

2017-01-01T21:14:10.000   2.762254712812739e+04   3.143313905789695e+04  -2.288870660246068e+00  -2.340311950140755e+00   2.029793711124846e+00   2.631946825286714e-05
2017-01-01T21:14:20.000   2.759913649748208e+04   3.145342844268732e+04  -2.288606792217052e+00  -2.341814056946669e+00   2.028083133992690e+00   2.645414110646627e-05
2017-01-01T21:14:30.000   2.757571085205541e+04   3.147370071604313e+04  -2.288341577382547e+00  -2.343314911447888e+00   2.026371428914099e+00   2.658882939248995e-05
2017-01-01T21:14:40.000   2.755227020412567e+04   3.149395586690643e+04  -2.288075015585894e+00  -2.344814512789418e+00   2.024658596790549e+00   2.672353302550982e-05
2017-01-01T21:14:50.000   2.752881456621582e+04   3.151419388402113e+04  -2.287807106673853e+00  -2.346312860101599e+00   2.022944638541462e+00   2.685825191870006e-05
2017-01-01T21:15:00.000   2.750534395087019e+04   3.153441475613023e+04  -2.287537850494229e+00  -2.347809952514702e+00   2.021229555087896e+00   2.699298598514159e-05
2017-01-01T21:15:10.000   2.748185837065369e+04   3.155461847197489e+04  -2.287267246895800e+00  -2.349305789158857e+00   2.019513347352481e+00   2.712773513781839e-05
2017-01-01T21:15:20.000   2.745835783837956e+04   3.157480502010245e+04  -2.286995295731097e+00  -2.350800369149839e+00   2.017796016276069e+00   2.726249928833571e-05
2017-01-01T21:15:30.000   2.743484236680334e+04   3.159497438912589e+04  -2.286721996852730e+00  -2.352293691608286e+00   2.016077562795366e+00   2.739727834865097e-05
2017-01-01T21:15:40.000   2.741131196874545e+04   3.161512656761943e+04  -2.286447350114841e+00  -2.353785755651963e+00   2.014357987851890e+00   2.753207223037886e-05
2017-01-01T21:15:50.000   2.738776665655139e+04   3.163526154458096e+04  -2.286171355366806e+00  -2.355276560429997e+00   2.012637292352524e+00   2.766688084786603e-05
2017-01-01T21:16:00.000   2.736420644263269e+04   3.165537930896828e+04  -2.285894012459536e+00  -2.356766105088550e+00   2.010915477209053e+00   2.780170411510890e-05
2017-01-01T21:16:10.000   2.734063133932755e+04   3.167547984981900e+04  -2.285615321243865e+00  -2.358254388779687e+00   2.009192543327964e+00   2.793654194654726e-05
2017-01-01T21:16:20.000   2.731704135927542e+04   3.169556315592762e+04  -2.285335281574847e+00  -2.359741410637478e+00   2.007468491637832e+00   2.807139425493134e-05
2017-01-01T21:16:30.000   2.729343651510812e+04   3.171562921611233e+04  -2.285053893308238e+00  -2.361227169797741e+00   2.005743323066755e+00   2.820626095307861e-05
2017-01-01T21:16:40.000   2.726981681952100e+04   3.173567801915351e+04  -2.284771156301296e+00  -2.362711665393493e+00   2.004017038547532e+00   2.834114195347131e-05
2017-01-01T21:16:50.000   2.724618228524613e+04   3.175570955381851e+04  -2.284487070412555e+00  -2.364194896556783e+00   2.002289639015729e+00   2.847603716839594e-05
2017-01-01T21:17:00.000   2.722253292503838e+04   3.177572380887189e+04  -2.284201635501584e+00  -2.365676862419460e+00   2.000561125408640e+00   2.861094651003794e-05
2017-01-01T21:17:10.000   2.719886875164697e+04   3.179572077309947e+04  -2.283914851428650e+00  -2.367157562114938e+00   1.998831498663223e+00   2.874586989063662e-05
2017-01-01T21:17:20.000   2.717518977780313e+04   3.181570043532049e+04  -2.283626718054637e+00  -2.368636994779105e+00   1.997100759715193e+00   2.888080722257801e-05
2017-01-01T21:17:30.000   2.715149601619123e+04   3.183566278440990e+04  -2.283337235240604e+00  -2.370115159551974e+00   1.995368909496908e+00   2.901575841853673e-05
2017-01-01T21:17:40.000   2.712778747952112e+04   3.185560780923827e+04  -2.283046402848719e+00  -2.371592055573235e+00   1.993635948942662e+00   2.915072339107216e-05
2017-01-01T21:17:50.000   2.710406418021426e+04   3.187553549893286e+04  -2.282754220738275e+00  -2.373067682001587e+00   1.991901878965740e+00   2.928570205439036e-05
2017-01-01T21:18:00.000   2.708032613078378e+04   3.189544584256088e+04  -2.282460688770483e+00  -2.374542037991273e+00   1.990166700486194e+00   2.942069432220562e-05
2017-01-01T21:18:10.000   2.705657334369097e+04   3.191533882924937e+04  -2.282165806806671e+00  -2.376015122700974e+00   1.988430414420358e+00   2.955570010854900e-05
2017-01-01T21:18:20.000   2.703280583190049e+04   3.193521444771998e+04  -2.281869574715173e+00  -2.377486935259349e+00   1.986693021721436e+00   2.969071932462921e-05
2017-01-01T21:18:30.000   2.700902360832528e+04   3.195507268675437e+04  -2.281571992364453e+00  -2.378957474799499e+00   1.984954523338922e+00   2.982575188197187e-05
2017-01-01T21:18:40.000   2.698522668596970e+04   3.197491353507392e+04  -2.281273059624871e+00  -2.380426740450063e+00   1.983214920229059e+00   2.996079769161080e-05
2017-01-01T21:18:50.000   2.696141507755121e+04   3.199473698165852e+04  -2.280972776364057e+00  -2.381894731358819e+00   1.981474213327190e+00   3.009585666622783e-05
2017-01-01T21:19:00.000   2.693758879581221e+04   3.201454301548314e+04  -2.280671142450704e+00  -2.383361446673186e+00   1.979732403570558e+00   3.023092871838965e-05
2017-01-01T21:19:10.000   2.691374785344825e+04   3.203433162557873e+04  -2.280368157753695e+00  -2.384826885544723e+00   1.977989491893050e+00   3.036601376095300e-05
2017-01-01T21:19:20.000   2.688989226313501e+04   3.205410280100760e+04  -2.280063822142365e+00  -2.386291047127312e+00   1.976245479227166e+00   3.050111170691804e-05
2017-01-01T21:19:30.000   2.686602203754248e+04   3.207385653085328e+04  -2.279758135486749e+00  -2.387753930576412e+00   1.974500366505062e+00   3.063622246934141e-05
2017-01-01T21:19:40.000   2.684213718936343e+04   3.209359280419701e+04  -2.279451097657942e+00  -2.389215535047308e+00   1.972754154660634e+00   3.077134596117786e-05
2017-01-01T21:19:50.000   2.681823773132603e+04   3.211331161010557e+04  -2.279142708528199e+00  -2.390675859694219e+00   1.971006844630430e+00   3.090648209519852e-05
2017-01-01T21:20:00.000   2.679432367622292e+04   3.213301293760942e+04  -2.278832967971387e+00  -2.392134903668669e+00   1.969258437355787e+00   3.104163078383738e-05
2017-01-01T21:20:10.000   2.677039503683822e+04   3.215269677576188e+04  -2.278521875862010e+00  -2.393592666123880e+00   1.967508933777484e+00   3.117679193960075e-05
2017-01-01T21:20:20.000   2.674645182626419e+04   3.217236311338171e+04  -2.278209432079438e+00  -2.395049146195701e+00   1.965758334858908e+00   3.131196547328769e-05
2017-01-01T21:20:30.000   2.672249405751768e+04   3.219201193936545e+04  -2.277895636502810e+00  -2.396504343025742e+00   1.964006641557999e+00   3.144715129614746e-05
2017-01-01T21:20:40.000   2.669852174368272e+04   3.221164324257128e+04  -2.277580489012914e+00  -2.397958255752772e+00   1.962253854837682e+00   3.158234931907610e-05
2017-01-01T21:20:50.000   2.667453489735914e+04   3.223125701227055e+04  -2.277263989484959e+00  -2.399410883546165e+00   1.960499975625543e+00   3.171755945572947e-05
2017-01-01T21:21:00.000   2.665053353121228e+04   3.225085323769716e+04  -2.276946137795767e+00  -2.400862225572514e+00   1.958745004854039e+00   3.185278161941733e-05
2017-01-01T21:21:10.000   2.662651765784878e+04   3.227043190814992e+04  -2.276626933822179e+00  -2.402312281003230e+00   1.956988943451399e+00   3.198801572380878e-05
2017-01-01T21:21:20.000   2.660248729012556e+04   3.228999301273665e+04  -2.276306377444994e+00  -2.403761048995576e+00   1.955231792364218e+00   3.212326168117213e-05
2017-01-01T21:21:30.000   2.657844244092091e+04   3.230953654056491e+04  -2.275984468546094e+00  -2.405208528706795e+00   1.953473552540731e+00   3.225851940368494e-05
2017-01-01T21:21:40.000   2.655438312313374e+04   3.232906248074100e+04  -2.275661207008369e+00  -2.406654719294043e+00   1.951714224930748e+00   3.239378880343011e-05
2017-01-01T21:21:50.000   2.653030934991682e+04   3.234857082218457e+04  -2.275336592719007e+00  -2.408099619900649e+00   1.949953810502710e+00   3.252906979110986e-05
2017-01-01T21:22:00.000   2.650622113436329e+04   3.236806155387933e+04  -2.275010625565136e+00  -2.409543229674688e+00   1.948192310220779e+00   3.266436227778264e-05
2017-01-01T21:22:10.000   2.648211848962996e+04   3.238753466477395e+04  -2.274683305435514e+00  -2.410985547761645e+00   1.946429725053833e+00   3.279966617417874e-05
2017-01-01T21:22:20.000   2.645800142839345e+04   3.240699014422167e+04  -2.274354632213159e+00  -2.412426573336969e+00   1.944666055935712e+00   3.293498139373535e-05
2017-01-01T21:22:30.000   2.643386996339389e+04   3.242642798154054e+04  -2.274024605782707e+00  -2.413866305573504e+00   1.942901303804965e+00   3.307030784956183e-05
2017-01-01T21:22:40.000   2.640972410731217e+04   3.244584816611325e+04  -2.273693226028776e+00  -2.415304743648883e+00   1.941135469595882e+00   3.320564545512312e-05
2017-01-01T21:22:50.000   2.638556387308077e+04   3.246525068713306e+04  -2.273360492840068e+00  -2.416741886726717e+00   1.939368554261222e+00   3.334099412250729e-05
2017-01-01T21:23:00.000   2.636138927365355e+04   3.248463553379313e+04  -2.273026406106378e+00  -2.418177733970605e+00   1.937600558755374e+00   3.347635376370663e-05
2017-01-01T21:23:10.000   2.633720032200499e+04   3.250400269528556e+04  -2.272690965718519e+00  -2.419612284544070e+00   1.935831484034306e+00   3.361172429062516e-05
